[{"OBJECT_NAME":"STARLINK-31684","OBJECT_ID":"2024-071J","EPOCH":"2026-03-08T19:31:52.154976","MEAN_MOTION":15.27581574,"ECCENTRICITY":6.373e-5,"INCLINATION":42.998,"RA_OF_ASC_NODE":352.3031,"ARG_OF_PERICENTER":257.0512,"MEAN_ANOMALY":103.0268,"EPHEMERIS_TYPE":0,"CLASSIFICATION_TYPE":"U","NORAD_CAT_ID":59492,"ELEMENT_SET_NO":999,"REV_AT_EPOCH":10798,"BSTAR":-0.00013350334,"MEAN_MOTION_DOT":-3.934e-5,"MEAN_MOTION_DDOT":0},{"OBJECT_NAME":"JINJUSAT-1B","OBJECT_ID":"2025-052A","EPOCH":"2026-03-09T15:55:38.242848","MEAN_MOTION":15.30194857,"ECCENTRICITY":0.00055504,"INCLINATION":97.4113,"RA_OF_ASC_NODE":325.4613,"ARG_OF_PERICENTER":82.193,"MEAN_ANOMALY":277.9941,"EPHEMERIS_TYPE":0,"CLASSIFICATION_TYPE":"U","NORAD_CAT_ID":63210,"ELEMENT_SET_NO":999,"REV_AT_EPOCH":5486,"BSTAR":0.00068430401,"MEAN_MOTION_DOT":0.00019955,"MEAN_MOTION_DDOT":0}]
